start=new Date('2022-11-30T00:00:00.000Z').valueOf();
sats=[{"MEAN_ANOMALY":"289.4926","EPHEMERIS_TYPE":"0","SEMIMAJOR_AXIS":"6925.328","CENTER_NAME":"EARTH","ELEMENT_SET_NO":"999","OBJECT_NAME":"STARLINK-2421","PERIOD":"95.592","FILE":"3673849","NORAD_CAT_ID":"48098","TIME_SYSTEM":"UTC","ECCENTRICITY":"0.00015930","DECAY_DATE":null,"CLASSIFICATION_TYPE":"U","OBJECT_TYPE":"PAYLOAD","BSTAR":"0.00011339000000","EPOCH":"2022-11-29T17:39:54.746784","MEAN_ELEMENT_THEORY":"SGP4","MEAN_MOTION_DOT":"0.00001408","OBJECT_ID":"2021-027G","COUNTRY_CODE":"US","APOAPSIS":"548.296","INCLINATION":"53.0537","MEAN_MOTION_DDOT":"0.0000000000000","LAUNCH_DATE":"2021-04-07","REF_FRAME":"TEME","RCS_SIZE":"LARGE","REV_AT_EPOCH":"9229","TLE_LINE2":"2 48098  53.0537 130.4646 0001593  70.6235 289.4926 15.06406771 92298","GP_ID":"219110829","TLE_LINE1":"1 48098U 21027G   22333.73605031  .00001408  00000-0  11339-3 0  9992","ARG_OF_PERICENTER":"70.6235","MEAN_MOTION":"15.06406771","RA_OF_ASC_NODE":"130.4646","SITE":"AFETR","PERIAPSIS":"546.090"},{"PERIAPSIS":"545.992","SITE":"AFETR","RA_OF_ASC_NODE":"139.9326","MEAN_MOTION":"15.06401006","ARG_OF_PERICENTER":"69.7835","TLE_LINE1":"1 48099U 21027H   22333.85677425  .00000541  00000-0  55238-4 0  9996","TLE_LINE2":"2 48099  53.0544 139.9326 0001759  69.7835 290.3343 15.06401006 92172","GP_ID":"219109577","REV_AT_EPOCH":"9217","RCS_SIZE":"LARGE","REF_FRAME":"TEME","MEAN_MOTION_DDOT":"0.0000000000000","INCLINATION":"53.0544","LAUNCH_DATE":"2021-04-07","APOAPSIS":"548.429","COUNTRY_CODE":"US","OBJECT_ID":"2021-027H","EPOCH":"2022-11-29T20:33:45.295200","MEAN_MOTION_DOT":"0.00000541","MEAN_ELEMENT_THEORY":"SGP4","OBJECT_TYPE":"PAYLOAD","BSTAR":"0.00005523800000","CLASSIFICATION_TYPE":"U","DECAY_DATE":null,"ECCENTRICITY":"0.00017590","TIME_SYSTEM":"UTC","FILE":"3673849","NORAD_CAT_ID":"48099","PERIOD":"95.592","OBJECT_NAME":"STARLINK-2428","ELEMENT_SET_NO":"999","CENTER_NAME":"EARTH","SEMIMAJOR_AXIS":"6925.345","MEAN_ANOMALY":"290.3343","EPHEMERIS_TYPE":"0"},{"BSTAR":"0.00003365100000","OBJECT_TYPE":"PAYLOAD","CLASSIFICATION_TYPE":"U","DECAY_DATE":null,"ECCENTRICITY":"0.00020420","TIME_SYSTEM":"UTC","FILE":"3673849","NORAD_CAT_ID":"48100","PERIOD":"95.592","OBJECT_NAME":"STARLINK-2430","ELEMENT_SET_NO":"999","CENTER_NAME":"EARTH","SEMIMAJOR_AXIS":"6925.326","MEAN_ANOMALY":"301.4531","EPHEMERIS_TYPE":"0","PERIAPSIS":"545.777","SITE":"AFETR","RA_OF_ASC_NODE":"120.6930","ARG_OF_PERICENTER":"58.6658","MEAN_MOTION":"15.06407414","TLE_LINE1":"1 48100U 21027J   22333.68536233  .00000220  00000-0  33651-4 0  9990","TLE_LINE2":"2 48100  53.0537 120.6930 0002042  58.6658 301.4531 15.06407414 92432","GP_ID":"219110327","REV_AT_EPOCH":"9243","RCS_SIZE":"LARGE","REF_FRAME":"TEME","MEAN_MOTION_DDOT":"0.0000000000000","INCLINATION":"53.0537","LAUNCH_DATE":"2021-04-07","APOAPSIS":"548.605","COUNTRY_CODE":"US","OBJECT_ID":"2021-027J","EPOCH":"2022-11-29T16:26:55.305312","MEAN_MOTION_DOT":"0.00000220","MEAN_ELEMENT_THEORY":"SGP4"},{"SITE":"AFETR","PERIAPSIS":"545.973","MEAN_MOTION":"15.06400431","ARG_OF_PERICENTER":"73.5471","RA_OF_ASC_NODE":"130.1763","TLE_LINE2":"2 48101  53.0537 130.1763 0001789  73.5471 286.5714 15.06400431 92314","GP_ID":"219110579","TLE_LINE1":"1 48101U 21027K   22333.80145973  .00000302  00000-0  39155-4 0  9998","REV_AT_EPOCH":"9231","REF_FRAME":"TEME","RCS_SIZE":"LARGE","INCLINATION":"53.0537","MEAN_MOTION_DDOT":"0.0000000000000","LAUNCH_DATE":"2021-04-07","COUNTRY_CODE":"US","APOAPSIS":"548.451","EPOCH":"2022-11-29T19:14:06.120672","MEAN_MOTION_DOT":"0.00000302","MEAN_ELEMENT_THEORY":"SGP4","OBJECT_ID":"2021-027K","BSTAR":"0.00003915500000","OBJECT_TYPE":"PAYLOAD","CLASSIFICATION_TYPE":"U","ECCENTRICITY":"0.00017890","DECAY_DATE":null,"NORAD_CAT_ID":"48101","FILE":"3673849","TIME_SYSTEM":"UTC","OBJECT_NAME":"STARLINK-2436","PERIOD":"95.592","CENTER_NAME":"EARTH","ELEMENT_SET_NO":"999","SEMIMAJOR_AXIS":"6925.347","MEAN_ANOMALY":"286.5714","EPHEMERIS_TYPE":"0"},{"CLASSIFICATION_TYPE":"U","OBJECT_TYPE":"PAYLOAD","BSTAR":"0.00003628400000","FILE":"3673849","NORAD_CAT_ID":"48102","TIME_SYSTEM":"UTC","ECCENTRICITY":"0.00014050","DECAY_DATE":null,"CENTER_NAME":"EARTH","ELEMENT_SET_NO":"999","OBJECT_NAME":"STARLINK-2437","PERIOD":"95.593","EPHEMERIS_TYPE":"0","MEAN_ANOMALY":"295.2958","SEMIMAJOR_AXIS":"6925.372","MEAN_MOTION":"15.06392394","ARG_OF_PERICENTER":"64.8176","RA_OF_ASC_NODE":"119.9781","SITE":"AFETR","PERIAPSIS":"546.264","REV_AT_EPOCH":"9245","TLE_LINE2":"2 48102  53.0538 119.9781 0001405  64.8176 295.2958 15.06392394 92451","GP_ID":"219111329","TLE_LINE1":"1 48102U 21027L   22333.84387114  .00000259  00000-0  36284-4 0  9999","INCLINATION":"53.0538","MEAN_MOTION_DDOT":"0.0000000000000","LAUNCH_DATE":"2021-04-07","REF_FRAME":"TEME","RCS_SIZE":"LARGE","EPOCH":"2022-11-29T20:15:10.466496","MEAN_ELEMENT_THEORY":"SGP4","MEAN_MOTION_DOT":"0.00000259","OBJECT_ID":"2021-027L","COUNTRY_CODE":"US","APOAPSIS":"548.210"},{"ELEMENT_SET_NO":"999","CENTER_NAME":"EARTH","PERIOD":"95.592","OBJECT_NAME":"STARLINK-2438","EPHEMERIS_TYPE":"0","MEAN_ANOMALY":"294.4301","SEMIMAJOR_AXIS":"6925.353","CLASSIFICATION_TYPE":"U","OBJECT_TYPE":"PAYLOAD","BSTAR":"-0.00003539500000","TIME_SYSTEM":"UTC","NORAD_CAT_ID":"48103","FILE":"3673849","DECAY_DATE":null,"ECCENTRICITY":"0.00018230","LAUNCH_DATE":"2021-04-07","MEAN_MOTION_DDOT":"0.0000000000000","INCLINATION":"53.0550","RCS_SIZE":"MEDIUM","REF_FRAME":"TEME","OBJECT_ID":"2021-027M","MEAN_ELEMENT_THEORY":"SGP4","MEAN_MOTION_DOT":"-0.00000809","EPOCH":"2022-11-29T18:54:12.305088","APOAPSIS":"548.480","COUNTRY_CODE":"US","RA_OF_ASC_NODE":"120.2668","ARG_OF_PERICENTER":"65.6878","MEAN_MOTION":"15.06398708","PERIAPSIS":"545.955","SITE":"AFETR","REV_AT_EPOCH":"9244","TLE_LINE1":"1 48103U 21027M   22333.78764242 -.00000809  00000-0 -35395-4 0  9999","GP_ID":"219110077","TLE_LINE2":"2 48103  53.0550 120.2668 0001823  65.6878 294.4301 15.06398708 92444"},{"NORAD_CAT_ID":"48104","FILE":"3673420","TIME_SYSTEM":"UTC","ECCENTRICITY":"0.00012520","DECAY_DATE":null,"CLASSIFICATION_TYPE":"U","OBJECT_TYPE":"PAYLOAD","BSTAR":"-0.00002003500000","EPHEMERIS_TYPE":"0","MEAN_ANOMALY":"279.7957","SEMIMAJOR_AXIS":"6925.368","CENTER_NAME":"EARTH","ELEMENT_SET_NO":"999","OBJECT_NAME":"STARLINK-2439","PERIOD":"95.593","REV_AT_EPOCH":"9193","TLE_LINE2":"2 48104  53.0537 126.6773 0001252  80.3173 279.7957 15.06393790 91937","GP_ID":"219078049","TLE_LINE1":"1 48104U 21027N   22333.46560026 -.00000580  00000-0 -20035-4 0  9990","MEAN_MOTION":"15.06393790","ARG_OF_PERICENTER":"80.3173","RA_OF_ASC_NODE":"126.6773","SITE":"AFETR","PERIAPSIS":"546.366","EPOCH":"2022-11-29T11:10:27.862464","MEAN_MOTION_DOT":"-0.00000580","MEAN_ELEMENT_THEORY":"SGP4","OBJECT_ID":"2021-027N","COUNTRY_CODE":"US","APOAPSIS":"548.100","MEAN_MOTION_DDOT":"0.0000000000000","INCLINATION":"53.0537","LAUNCH_DATE":"2021-04-07","REF_FRAME":"TEME","RCS_SIZE":"LARGE"},{"LAUNCH_DATE":"2021-04-07","MEAN_MOTION_DDOT":"0.0000000000000","INCLINATION":"53.0546","RCS_SIZE":"LARGE","REF_FRAME":"TEME","OBJECT_ID":"2021-027P","MEAN_MOTION_DOT":"0.00001440","MEAN_ELEMENT_THEORY":"SGP4","EPOCH":"2022-11-29T13:43:42.756960","APOAPSIS":"548.160","COUNTRY_CODE":"US","RA_OF_ASC_NODE":"71.2022","MEAN_MOTION":"15.06400323","ARG_OF_PERICENTER":"79.4384","PERIAPSIS":"546.265","SITE":"AFETR","REV_AT_EPOCH":"9311","TLE_LINE1":"1 48105U 21027P   22333.57202265  .00001440  00000-0  11556-3 0  9992","GP_ID":"219111079","TLE_LINE2":"2 48105  53.0546  71.2022 0001368  79.4384 280.6759 15.06400323 93115","ELEMENT_SET_NO":"999","CENTER_NAME":"EARTH","PERIOD":"95.592","OBJECT_NAME":"STARLINK-2440","EPHEMERIS_TYPE":"0","MEAN_ANOMALY":"280.6759","SEMIMAJOR_AXIS":"6925.348","CLASSIFICATION_TYPE":"U","BSTAR":"0.00011556000000","OBJECT_TYPE":"PAYLOAD","TIME_SYSTEM":"UTC","NORAD_CAT_ID":"48105","FILE":"3673849","DECAY_DATE":null,"ECCENTRICITY":"0.00013680"},{"EPOCH":"2022-11-29T16:32:14.442720","MEAN_ELEMENT_THEORY":"SGP4","MEAN_MOTION_DOT":"0.00000489","OBJECT_ID":"2021-027Q","COUNTRY_CODE":"US","APOAPSIS":"548.322","INCLINATION":"53.0545","MEAN_MOTION_DDOT":"0.0000000000000","LAUNCH_DATE":"2021-04-07","REF_FRAME":"TEME","RCS_SIZE":"LARGE","REV_AT_EPOCH":"9243","TLE_LINE2":"2 48106  53.0545 120.6943 0001605  73.1949 286.9216 15.06401122 92437","GP_ID":"219110830","TLE_LINE1":"1 48106U 21027Q   22333.68905605  .00000489  00000-0  51749-4 0  9994","ARG_OF_PERICENTER":"73.1949","MEAN_MOTION":"15.06401122","RA_OF_ASC_NODE":"120.6943","SITE":"AFETR","PERIAPSIS":"546.099","MEAN_ANOMALY":"286.9216","EPHEMERIS_TYPE":"0","SEMIMAJOR_AXIS":"6925.345","CENTER_NAME":"EARTH","ELEMENT_SET_NO":"999","OBJECT_NAME":"STARLINK-2442","PERIOD":"95.592","FILE":"3673849","NORAD_CAT_ID":"48106","TIME_SYSTEM":"UTC","ECCENTRICITY":"0.00016050","DECAY_DATE":null,"CLASSIFICATION_TYPE":"U","BSTAR":"0.00005174900000","OBJECT_TYPE":"PAYLOAD"},{"TLE_LINE2":"2 48107  53.0547 120.9135 0001462  82.7788 277.3367 15.06401389 92429","GP_ID":"219109578","TLE_LINE1":"1 48107U 21027R   22333.63745171 -.00000506  00000-0 -15057-4 0  9994","REV_AT_EPOCH":"9242","SITE":"AFETR","PERIAPSIS":"546.197","MEAN_MOTION":"15.06401389","ARG_OF_PERICENTER":"82.7788","RA_OF_ASC_NODE":"120.9135","COUNTRY_CODE":"US","APOAPSIS":"548.222","EPOCH":"2022-11-29T15:17:55.827744","MEAN_ELEMENT_THEORY":"SGP4","MEAN_MOTION_DOT":"-0.00000506","OBJECT_ID":"2021-027R","REF_FRAME":"TEME","RCS_SIZE":"LARGE","MEAN_MOTION_DDOT":"0.0000000000000","INCLINATION":"53.0547","LAUNCH_DATE":"2021-04-07","ECCENTRICITY":"0.00014620","DECAY_DATE":null,"FILE":"3673849","NORAD_CAT_ID":"48107","TIME_SYSTEM":"UTC","OBJECT_TYPE":"PAYLOAD","BSTAR":"-0.00001505700000","CLASSIFICATION_TYPE":"U","SEMIMAJOR_AXIS":"6925.344","EPHEMERIS_TYPE":"0","MEAN_ANOMALY":"277.3367","OBJECT_NAME":"STARLINK-2443","PERIOD":"95.592","CENTER_NAME":"EARTH","ELEMENT_SET_NO":"999"}];
